{
    "links": {
        "self": "http://www.neowsapp.com/rest/v1/neo/3715408?api_key=iIulBulltgU6a56xZRHN4H3l9WmuAYTsLGpBGhQ2"
    },
    "id": "3715408",
    "neo_reference_id": "3715408",
    "name": "(2015 BT516)",
    "designation": "2015 BT516",
    "nasa_jpl_url": "http://ssd.jpl.nasa.gov/sbdb.cgi?sstr=3715408",
    "absolute_magnitude_h": 23.9,
    "estimated_diameter": {
        "kilometers": {
            "estimated_diameter_min": 0.04411182,
            "estimated_diameter_max": 0.0986370281
        },
        "meters": {
            "estimated_diameter_min": 44.1118199997,
            "estimated_diameter_max": 98.6370281305
        },
        "miles": {
            "estimated_diameter_min": 0.0274098057,
            "estimated_diameter_max": 0.0612901888
        },
        "feet": {
            "estimated_diameter_min": 144.7238235278,
            "estimated_diameter_max": 323.6123073718
        }
    },
    "is_potentially_hazardous_asteroid": false,
    "close_approach_data": [
        {
            "close_approach_date": "2015-02-14",
            "close_approach_date_full": "2015-Feb-14 08:09",
            "epoch_date_close_approach": 1423901340000,
            "relative_velocity": {
                "kilometers_per_second": "7.0786946193",
                "kilometers_per_hour": "25483.3006294282",
                "miles_per_hour": "15834.33199388"
            },
            "miss_distance": {
                "astronomical": "0.1552762317",
                "lunar": "60.4024541313",
                "kilometers": "23228993.523946479",
                "miles": "14433827.2703162502"
            },
            "orbiting_body": "Earth"
        }
    ],
    "orbital_data": {
        "orbit_id": "4",
        "orbit_determination_date": "2019-07-11 06:08:33",
        "first_observation_date": "2015-01-27",
        "last_observation_date": "2015-01-29",
        "data_arc_in_days": 2,
        "observations_used": 9,
        "orbit_uncertainty": "9",
        "minimum_orbit_intersection": ".137072",
        "jupiter_tisserand_invariant": "4.332",
        "epoch_osculation": "2457050.5",
        "eccentricity": ".2884689072247399",
        "semi_major_axis": "1.574351373433812",
        "inclination": "12.78451038569106",
        "ascending_node_longitude": "319.9517410829164",
        "orbital_period": "721.5242431107387",
        "perihelion_distance": "1.120199953151592",
        "perihelion_argument": "193.5695242900222",
        "aphelion_distance": "2.028502793716033",
        "perihelion_time": "2457080.822491656857",
        "mean_anomaly": "344.8707827897709",
        "mean_motion": ".4989437339595361",
        "equinox": "J2000",
        "orbit_class": {
            "orbit_class_type": "AMO",
            "orbit_class_description": "Near-Earth asteroid orbits similar to that of 1221 Amor",
            "orbit_class_range": "1.017 AU < q (perihelion) < 1.3 AU"
        }
    },
    "is_sentry_object": false
}